{
  "type": "FeatureCollection",
  "features": [
    {
      "type": "Feature",
      "properties": {
        "norad_id": 36060,
        "name": "COSMOS 2251 DEB",
        "group": "cosmos-2251-debris",
        "lat": -71.94944865722944,
        "lon": 123.47834971061417,
        "alt_km": 756.598323726068,
        "timestamp": "2025-12-08T17:43:05.335101+00:00",
        "meta_object_name": "COSMOS 2251 DEB",
        "meta_object_id": "1993-036AXX",
        "meta_epoch": "2025-12-08T03:11:16.420416",
        "meta_mean_motion": 14.41982617,
        "meta_eccentricity": 0.00151193,
        "meta_inclination": 74.0292,
        "meta_ra_of_asc_node": 243.1089,
        "meta_arg_of_pericenter": 340.535,
        "meta_mean_anomaly": 19.5227,
        "meta_ephemeris_type": 0,
        "meta_classification_type": "U",
        "meta_norad_cat_id": 36060,
        "meta_element_set_no": 999,
        "meta_rev_at_epoch": 84943,
        "meta_bstar": 0.00054488856,
        "meta_mean_motion_dot": 1.763e-05,
        "meta_mean_motion_ddot": 0,
        "tle_line1": "1 36060U 93036AXX 25342.13282894  .00001763  00000+0  54489-3 0  9998",
        "tle_line2": "2 36060  74.0292 243.1089 0015119 340.5350  19.5227 14.41982617849432"
      },
      "geometry": {
        "type": "Point",
        "coordinates": [
          123.47834971061417,
          -71.94944865722944
        ]
      }
    },
    {
      "type": "Feature",
      "properties": {
        "norad_id": 36061,
        "name": "COSMOS 2251 DEB",
        "group": "cosmos-2251-debris",
        "lat": -22.02359786449044,
        "lon": -166.25964337621627,
        "alt_km": 791.7208282003076,
        "timestamp": "2025-12-08T17:43:05.335111+00:00",
        "meta_object_name": "COSMOS 2251 DEB",
        "meta_object_id": "1993-036AXY",
        "meta_epoch": "2025-12-06T19:33:46.533024",
        "meta_mean_motion": 14.3369459,
        "meta_eccentricity": 0.00368493,
        "meta_inclination": 74.0244,
        "meta_ra_of_asc_node": 10.6045,
        "meta_arg_of_pericenter": 100.4465,
        "meta_mean_anomaly": 260.0843,
        "meta_ephemeris_type": 0,
        "meta_classification_type": "U",
        "meta_norad_cat_id": 36061,
        "meta_element_set_no": 999,
        "meta_rev_at_epoch": 65019,
        "meta_bstar": 0.00049752015,
        "meta_mean_motion_dot": 1.365e-05,
        "meta_mean_motion_ddot": 0,
        "tle_line1": "1 36061U 93036AXY 25340.81512191  .00001365  00000+0  49752-3 0  9993",
        "tle_line2": "2 36061  74.0244  10.6045 0036849 100.4465 260.0843 14.33694590650193"
      },
      "geometry": {
        "type": "Point",
        "coordinates": [
          -166.25964337621627,
          -22.02359786449044
        ]
      }
    },
    {
      "type": "Feature",
      "properties": {
        "norad_id": 36073,
        "name": "COSMOS 2251 DEB",
        "group": "cosmos-2251-debris",
        "lat": -70.84532143310344,
        "lon": -85.62379219521021,
        "alt_km": 790.2077555562055,
        "timestamp": "2025-12-08T17:43:05.335122+00:00",
        "meta_object_name": "COSMOS 2251 DEB",
        "meta_object_id": "1993-036AYL",
        "meta_epoch": "2025-12-05T08:05:57.966144",
        "meta_mean_motion": 14.34937628,
        "meta_eccentricity": 0.00235374,
        "meta_inclination": 74.0317,
        "meta_ra_of_asc_node": 336.1285,
        "meta_arg_of_pericenter": 46.3529,
        "meta_mean_anomaly": 313.9569,
        "meta_ephemeris_type": 0,
        "meta_classification_type": "U",
        "meta_norad_cat_id": 36073,
        "meta_element_set_no": 999,
        "meta_rev_at_epoch": 70101,
        "meta_bstar": 0.00039460589,
        "meta_mean_motion_dot": 1.1e-05,
        "meta_mean_motion_ddot": 0,
        "tle_line1": "1 36073U 93036AYL 25339.33747646  .00001100  00000+0  39461-3 0  9999",
        "tle_line2": "2 36073  74.0317 336.1285 0023537  46.3529 313.9569 14.34937628701012"
      },
      "geometry": {
        "type": "Point",
        "coordinates": [
          -85.62379219521021,
          -70.84532143310344
        ]
      }
    },
    {
      "type": "Feature",
      "properties": {
        "norad_id": 36074,
        "name": "COSMOS 2251 DEB",
        "group": "cosmos-2251-debris",
        "lat": -63.46714841670419,
        "lon": -47.14637680144086,
        "alt_km": 778.5514133836432,
        "timestamp": "2025-12-08T17:43:05.335132+00:00",
        "meta_object_name": "COSMOS 2251 DEB",
        "meta_object_id": "1993-036AYM",
        "meta_epoch": "2025-12-04T07:35:54.379968",
        "meta_mean_motion": 14.43651509,
        "meta_eccentricity": 0.0041318,
        "meta_inclination": 73.9929,
        "meta_ra_of_asc_node": 356.1864,
        "meta_arg_of_pericenter": 90.6412,
        "meta_mean_anomaly": 269.9479,
        "meta_ephemeris_type": 0,
        "meta_classification_type": "U",
        "meta_norad_cat_id": 36074,
        "meta_element_set_no": 999,
        "meta_rev_at_epoch": 85788,
        "meta_bstar": 0.0017767,
        "meta_mean_motion_dot": 6.071e-05,
        "meta_mean_motion_ddot": 0,
        "tle_line1": "1 36074U 93036AYM 25338.31660162  .00006071  00000+0  17767-2 0  9990",
        "tle_line2": "2 36074  73.9929 356.1864 0041318  90.6412 269.9479 14.43651509857883"
      },
      "geometry": {
        "type": "Point",
        "coordinates": [
          -47.14637680144086,
          -63.46714841670419
        ]
      }
    },
    {
      "type": "Feature",
      "properties": {
        "norad_id": 36366,
        "name": "COSMOS 2251 DEB",
        "group": "cosmos-2251-debris",
        "lat": 15.79144794690154,
        "lon": -74.99571010869244,
        "alt_km": 755.2622925124251,
        "timestamp": "2025-12-08T17:43:05.335143+00:00",
        "meta_object_name": "COSMOS 2251 DEB",
        "meta_object_id": "1993-036AYT",
        "meta_epoch": "2025-12-06T13:42:50.322528",
        "meta_mean_motion": 14.33288178,
        "meta_eccentricity": 0.00910047,
        "meta_inclination": 74.0664,
        "meta_ra_of_asc_node": 284.3224,
        "meta_arg_of_pericenter": 313.7987,
        "meta_mean_anomaly": 45.5662,
        "meta_ephemeris_type": 0,
        "meta_classification_type": "U",
        "meta_norad_cat_id": 36366,
        "meta_element_set_no": 999,
        "meta_rev_at_epoch": 86200,
        "meta_bstar": 0.0036082315,
        "meta_mean_motion_dot": 0.00010391,
        "meta_mean_motion_ddot": 0,
        "tle_line1": "1 36366U 93036AYT 25340.57141577  .00010391  00000+0  36082-2 0  9990",
        "tle_line2": "2 36366  74.0664 284.3224 0091004 313.7987  45.5662 14.33288178862009"
      },
      "geometry": {
        "type": "Point",
        "coordinates": [
          -74.99571010869244,
          15.79144794690154
        ]
      }
    },
    {
      "type": "Feature",
      "properties": {
        "norad_id": 36367,
        "name": "COSMOS 2251 DEB",
        "group": "cosmos-2251-debris",
        "lat": 11.313692905191647,
        "lon": -118.56060368302228,
        "alt_km": 842.5988128962981,
        "timestamp": "2025-12-08T17:43:05.335153+00:00",
        "meta_object_name": "COSMOS 2251 DEB",
        "meta_object_id": "1993-036AYU",
        "meta_epoch": "2025-12-08T00:20:40.226208",
        "meta_mean_motion": 13.86291328,
        "meta_eccentricity": 0.0262612,
        "meta_inclination": 74.1007,
        "meta_ra_of_asc_node": 239.3909,
        "meta_arg_of_pericenter": 313.3278,
        "meta_mean_anomaly": 44.6219,
        "meta_ephemeris_type": 0,
        "meta_classification_type": "U",
        "meta_norad_cat_id": 36367,
        "meta_element_set_no": 999,
        "meta_rev_at_epoch": 57464,
        "meta_bstar": 0.002130832,
        "meta_mean_motion_dot": 3.206e-05,
        "meta_mean_motion_ddot": 0,
        "tle_line1": "1 36367U 93036AYU 25342.01435447  .00003206  00000+0  21308-2 0  9996",
        "tle_line2": "2 36367  74.1007 239.3909 0262612 313.3278  44.6219 13.86291328574642"
      },
      "geometry": {
        "type": "Point",
        "coordinates": [
          -118.56060368302228,
          11.313692905191647
        ]
      }
    },
    {
      "type": "Feature",
      "properties": {
        "norad_id": 36369,
        "name": "COSMOS 2251 DEB",
        "group": "cosmos-2251-debris",
        "lat": -5.087085006378839,
        "lon": 77.07460527017471,
        "alt_km": 661.3707382009952,
        "timestamp": "2025-12-08T17:43:05.335163+00:00",
        "meta_object_name": "COSMOS 2251 DEB",
        "meta_object_id": "1993-036AYW",
        "meta_epoch": "2025-12-06T13:35:50.036640",
        "meta_mean_motion": 14.73392813,
        "meta_eccentricity": 0.00119896,
        "meta_inclination": 74.0324,
        "meta_ra_of_asc_node": 82.7677,
        "meta_arg_of_pericenter": 162.928,
        "meta_mean_anomaly": 197.2299,
        "meta_ephemeris_type": 0,
        "meta_classification_type": "U",
        "meta_norad_cat_id": 36369,
        "meta_element_set_no": 999,
        "meta_rev_at_epoch": 85831,
        "meta_bstar": 0.0028329417,
        "meta_mean_motion_dot": 0.00018403,
        "meta_mean_motion_ddot": 0,
        "tle_line1": "1 36369U 93036AYW 25340.56655135  .00018403  00000+0  28329-2 0  9999",
        "tle_line2": "2 36369  74.0324  82.7677 0011989 162.9280 197.2299 14.73392813858317"
      },
      "geometry": {
        "type": "Point",
        "coordinates": [
          77.07460527017471,
          -5.087085006378839
        ]
      }
    }
  ]
}